PropertyName,Address1,Address2,City,State,Zip,Latitude,Longitude,Phone,Website
BB&T Bank (West Main),401 W Main St #100,, Louisville,KY,40202,38.257176,-85.757041,(502) 562-5401,http://www.bbt.com/
BB&T Bank (Bardstown),1339 Bardstown Road,, Louisville,KY,40204,38.2346632,-85.7138786,(502) 451-1082,http://www.bbt.com/
BB&T Bank (St.Matthews),3747 Lexington Road,, Louisville,KY,40207,38.2528074,-85.6577343,(502) 891-2667,http://www.bbt.com/
BB&T Bank (St.Matthews),4507 Shelbyville Road,, Louisville,KY,40207,38.251209,-85.630842,(502) 891-2660,http://www.bbt.com/
BB&T Bank (Bluegrass Parkway),11490 Bluegrass Parkway,, Louisville,KY,40299,38.2184578,-85.5421875,(800) 550-1274,http://www.bbt.com/
BB&T Bank (Bashford Manor),3534 Bardstown Road,, Louisville,KY,40218,38.2006595,-85.6635132,(502) 452-6595,http://www.bbt.com/
BB&T Bank Insurance Services,2600 Eastpoint Parkway,, Louisville,KY,40223,38.284503,-85.508671,(502) 489-5900,http://www.bbt.com/
BB&T Bank (Springhurst),9510 Brownsboro Road,, Louisville,KY,40241,38.307363,-85.574155,(502) 412-0416,http://www.bbt.com/
BB&T Bank (Dixie),5110 Dixie Highway,, Louisville,KY,40216,38.167708,-85.82986,(502) 449-7340,http://www.bbt.com/
BB&T Bank (Park Place),9050 Dixie Highway,, Louisville,KY,40258,38.12458,-85.8533829,(502) 933-4024,http://www.bbt.com/
BB&T Bank (Southside),7111 Southside Drive,, Louisville,KY,40214,38.1528149,-85.764701,(502) 363-1535,http://www.bbt.com/
BB&T Bank (Russell),2501 W Broadway,, Louisville,KY,40211,38.249819,-85.7934949,(502)772-1025,http://www.bbt.com/
BB&T Bank (Algonquin),3140 Wilson Avenue,, Louisville,KY,40211,38.22463,-85.808701,(502)772-0131,http://www.bbt.com/
BB&T Bank (Taylor),3450 Taylor Boulevard,, Louisville,KY,40215,38.197401,-85.783303,(502)363-1544,http://www.bbt.com/
BB&T Bank (Jeffersonville),2705 E 10th Street,, Jeffersonville,IN,47130,38.3171234,-85.7158106,(812)704-1240,http://www.bbt.com/
BB&T Bank (Preston),5319 Preston Highway,, Louisville,KY,40213,38.171238,-85.7085759,(502)810-0434,http://www.bbt.com/
BB&T Bank (New Albany),4210 Charlestown Road,, New Albany,IN,47160,38.349857,-85.795255,(812)949-9909,http://www.bbt.com/
BB&T Bank (Brownsboro),4908 U.S. 42,, Louisville,KY,40222,38.281444,-85.634026,(502) 412-0171,http://www.bbt.com/
BB&T Bank (Poplar Level),5004 Poplar Level Road,, Louisville,KY,40219,38.166421,-85.681543,(502)810-0427,http://www.bbt.com/
BB&T Bank (Hikes Point),4082 Taylorsville Road,, Louisville,KY,40220,38.2196019,-85.6215314,(502)238-4219,http://www.bbt.com/
BB&T Bank (Jefferson Pavillion),7301 Jefferson Boulevard,, Louisville,KY,40219,38.145373,-85.674408,(502)810-0417,http://www.bbt.com/
BB&T Bank (Stonybrook),2601 S Hurstbourne Parkway,, Jeffersontown,KY,40220,38.212721,-85.593527,(502)493-3460,http://www.bbt.com/
BB&T Bank (Hurstbourne),330 Whittington Parkway,, Louisville,KY,40222,38.241796,-85.577744,(502)412-0273,http://www.bbt.com/
BB&T Bank (Westport Plaza),2900 N Hurstbourne Parkway,, Louisville,KY,40241,38.2886595,-85.57435,(502)231-2297,http://www.bbt.com/
BB&T Bank (Dixie Valley),10403 Dixie Highway,, Louisville,KY,40272,38.104349,-85.868207,(502) 933-1618,http://www.bbt.com/
BB&T Bank (Blankenbaker),721 Blankenbaker Parkway,, Louisville,KY,40243,38.2312889,-85.542046,(502)267-1078,http://www.bbt.com/
BB&T Bank (Fern Creek),6740 Bardstown Road,, Louisville,KY,40291,38.147839,-85.58693,(502) 231-0176,http://www.bbt.com/
Chase Bank (Bardstown),1718 Bardstown Road,, Louisville,KY,40205,38.229453,-85.703238,(502) 566-2161,https://www.chase.com/
Chase Bank (Louisville Main),416 W Jefferson Street,, Louisville,KY,40202,38.253469,-85.757489,502-566-2002,https://www.chase.com/
Chase Bank (Medical Center),601 S Floyd Street,, Louisville,KY,40208,38.2477837,-85.7491089,502-566-1901,https://www.chase.com/
Chase Bank (Broadway),2600 W Broadway Suite 101,, Louisville,KY,40211,38.248039,-85.795584,502-566-2231,https://www.chase.com/
Chase Bank (Jeffersonville),443 Spring Street,, Jeffersonville,IN,47130,38.27397,-85.742401,812- 284-7433,https://www.chase.com/
Chase Bank (7th Street),1481 S 7th Street,, Louisville,KY,40208,38.226958,-85.768514,(502) 566-2201,https://www.chase.com/
Chase Bank (Shelby),1224 S Shelby Street,, Louisville,KY,40203,38.232368,-85.742007,502-566-2331,https://www.chase.com/
Chase Bank (Highlands),970 Baxter Avenue,, Louisville,KY,40204,38.2403117,-85.7245474,502-566-1870,https://www.chase.com/
Chase Bank (Jeffersonville),1642 E 10th Street,, Jeffersonville,IN,47130,38.2939488,-85.7270129,812-284-7540,https://www.chase.com/
Chase Bank (New Albany),120 W Spring Street,, New Albany,IN,47150,38.285982,-85.825115,812-941-6321,https://www.chase.com/
Chase Bank (Shively),3901 S 7th Street,, Louisville,KY,40215,38.1967694,-85.7990344,502-449-2425,https://www.chase.com/
Chase Bank (Poplar Level),4038 Poplar Level Road,, Louisville,KY,40213,38.199318,-85.708416,(502) 566-2431,https://www.chase.com/
Chase Bank (Brownsboro),3820 Brownsboro Park Boulevard,, Louisville,KY,40207,38.2805248,-85.6396261,502-566-1933,https://www.chase.com/
Republic Bank (Louisville Main),601 W Market Street,, Louisville,KY,40202,38.2556089,-85.7601024,(502) 584-3600,https://www.republicbank.com/home/personal
Republic Bank (Jewish Hospital),220 Abraham Flexner Way,, Louisville,KY,40202,38.2490846,-85.7504004,(502) 588-3115,https://www.republicbank.com/home/personal
Republic Bank (Broadway),2028 W Broadway,, Louisville,KY,40203,38.248741,-85.786221,(502) 772-7500,https://www.republicbank.com/home/personal
Republic Bank (Poplar Level),1420 Poplar Level Road,, Louisville,KY,40217,38.219931,-85.729404,(502) 636-2661,https://www.republicbank.com/home/personal
Republic Bank (Highlands),2801 Bardstown Road,, Louisville,KY,40291,38.2183304,-85.6780095,(502) 459-2200,https://www.republicbank.com/home/personal
Republic Bank (St.Matthews),3726 Lexington Road,, Louisville,KY,40207,38.251908,-85.659422,(502) 893-2533,https://www.republicbank.com/home/personal
Republic Bank (New Cut),5125 New Cut Road,, Louisville,KY,40214,38.162025,-85.778743,(502) 363-4644,https://www.republicbank.com/home/personal
Republic Bank (Baptist East),3950 Kresge Way,, Louisville,KY,40207,38.2385219,-85.6406008,(502) 897-3800,https://www.republicbank.com/home/personal
Republic Bank (New Albany),3001 Charlestown Crossing Way,, New Albany,IN,47150,38.350368,-85.796245,(812) 949-2600,https://www.republicbank.com/home/personal
Republic Bank (Brownsboro),4921 Brownsboro Road,, Louisville,KY,40222,38.281791,-85.632456,(502) 339-9700,https://www.republicbank.com/home/personal
Republic Bank (Hikes Point),3902 Taylorsville Road,, Louisville,KY,40220,38.219715,-85.630687,(502) 451-2006,https://www.republicbank.com/home/personal
Republic Bank (Dixie),5250 Dixie Highway,, Louisville,KY,40216,38.1619546,-85.831888,(502) 448-7000,https://www.republicbank.com/home/personal
Republic Bank (Outer Loop),4808 Outer Loop,, Louisville,KY,40219,38.137482,-85.672719,(502) 969-8999,https://www.republicbank.com/home/personal
Republic Bank (Hurstbourne),661 S Hurstbourne Parkway,, Louisville,KY,40222,38.237392,-85.576522,(502) 425-2300,https://www.republicbank.com/home/personal
Republic Bank (Springhurst),9600 Brownsboro Road,, Louisville,KY,40241,38.3078665,-85.5728918,(502) 339-2200,https://www.republicbank.com/home/personal
Republic Bank (Jeffersontown),3811 Ruckriegel Parkway,, Louisville,KY,40299,38.18794,-85.564972,(502) 266-5466,https://www.republicbank.com/home/personal
Republic Bank (Middletown),11330 Main Street,, Louisville,KY,40243,38.2427717,-85.5459757,(502) 254-7555,https://www.republicbank.com/home/personal
Republic Bank (Fern Creek),10100 Brookridge Village Boulevard,, Louisville,KY,40291,38.145043,-85.584193,(502) 231-5522,https://www.republicbank.com/home/personal
Woodforest Bank (Outer Loop),175 Outer Loop,, Louisville,KY,40214,38.128238,-85.779905,(502) 375-8773,http://www.woodforest.com/
Woodforest Bank (Valley Station),7100 Raggard Road,, Louisville,KY,40216,38.17193,-85.870673,502.447.2433,http://www.woodforest.com/
Woodforest Bank (Bardstown),7101 Cedar Springs Boulevard,, Louisville,KY,40291,38.142894,-85.58653,(502) 239-4899,http://www.woodforest.com/
Woodforest Bank (Standiford),11901 Standiford Plaza Drive,, Louisville,KY,40229,38.088726,-85.664837,(502) 969-9125,http://www.woodforest.com/
First Capital Bank of Kentucky (Main),293 N Hubbards Lane,, Louisville,KY,40207,38.259323,-85.6401,502-895-5040,http://www.fcbok.com
First Capital Bank of Kentucky (Fern Creek),6512 Bardstown Road,, Louisville,KY,40291,38.152122,-85.588782,502-891-3599,http://www.fcbok.com
First Capital Bank of Kentucky (Bardstown),2735 Bardstown Road,, Louisville,KY,40205,38.218918,-85.67826,(502) 259-3000,http://www.fcbok.com
First Capital Bank of Kentucky (Crescent Hill),2862 Frankfort Avenue,, Louisville,KY,40206,38.254379,-85.687538,502-894-2380,http://www.fcbok.com
First Capital Bank of Kentucky (Middletown),13704 Shelbyville Road,, Louisville,KY,40245,38.2417305,-85.5011878,502-891-0100,http://www.fcbok.com
Your Community Bank (Main Street),471 W Main Street,, Louisville,KY,40202,38.25724,-85.757691,502-569-4266,https://www.yourcommunitybank.com/
Your Community Bank (St.Matthews),4510 Shelbyville Road,, Louisville,KY,40207,38.250509,-85.63292,(502) 895-1713,https://www.yourcommunitybank.com/
Your Community Bank (Eastpoint),13205 Magisterial Drive,, Louisville,KY,40223,38.2688261,-85.5070888,(502) 489-3600,https://www.yourcommunitybank.com/
Your Community Bank (Jeffersonville),201 W Court Avenue,, Jeffersonville,IN,47130,38.27324,-85.743597,(812) 285-1111,https://www.yourcommunitybank.com/
Your Community Bank (Jeffersonville),5112 Indiana 62,, Jeffersonville,IN,47130,38.3523831,-85.7037825,(812) 285-4050,https://www.yourcommunitybank.com/
Your Community Bank (Jeffersonville),2917 E 10th Street,, Jeffersonville,IN,47130,38.321164,-85.7138918,(812) 258-2060,https://www.yourcommunitybank.com/
PNC Bank (Louisville Plaza),500 W Jefferson Street,, Louisville,KY,40202,38.253663,-85.759251,502-581-7081,https://www.pnc.com
PNC Bank (Louisville Tower),101 S 5th Street,, Louisville,KY,40202,38.256143,-85.757873,502-581-6424,https://www.pnc.com
PNC Bank (East Broadway),535 E Broadway,, Louisville,KY,40202,38.245351,-85.743858,(502) 581-4120,https://www.pnc.com
PNC Bank (4th Street),1200 S 4th Street,, Louisville,KY,40203,38.234827,-85.760704,502-581-5430,https://www.pnc.com
PNC Bank (Portland),2601 Bank Street,, Louisville,KY,40212,38.269622,-85.791168,502-581-5220,https://www.pnc.com
PNC Bank (Jeffersonville),405 E Court Avenue,, Jeffersonville,IN,47130,38.276458,-85.738597,812-284-2265,https://www.pnc.com
PNC Bank (West Broadway),3405 W Broadway,, Louisville,KY,40211,38.250265,-85.808335,502-581-5390,https://www.pnc.com
PNC Bank (University),1900 S 3rd Street,, Louisville,KY,40208,38.22039,-85.76173,502-212-6180,https://www.pnc.com
PNC Bank (Eastern Parkway),801 Eastern Parkway,, Louisville,KY,40217,38.215219,-85.742703,502-581-5410,https://www.pnc.com
PNC Bank (Cherokee),1301 Bardstown Road,, Louisville,KY,40204,38.235461,-85.714928,502-581-7560,https://www.pnc.com
PNC Bank (Dixie),2400 Dixie Highway,, Louisville,KY,40216,38.215257,-85.796242,502-581-5383,https://www.pnc.com
PNC Bank (Clarksville),819 Eastern Boulevard,, Clarksville,IN,47129,38.301336,-85.764098,(812) 282-1717,https://www.pnc.com
PNC Bank (South Louisville),3100 S 4th Street,, Louisville,KY,40214,38.204913,-85.765961,502-581-4232,https://www.pnc.com
PNC Bank (Audobon),3001 Preston Highway,, Louisville,KY,40217,38.206596,-85.736936,502-581-6675,https://www.pnc.com
PNC Bank (New Albany),400 State Street,, New Albany,IN,47150,38.286007,-85.823924,812-949-6600,https://www.pnc.com
PNC Bank (Brownsboro),2790 Brownsboro Road,, Louisville,KY,40206,38.2592519,-85.692803,502-581-4237,https://www.pnc.com
PNC Bank (Bardstown),2123 Bardstown Road,, Louisville,KY,40205,38.2249082,-85.6942321,502-581-5333,https://www.pnc.com
PNC Bank (New Albany),2659 Charlestown Road,, New Albany,IN,47150,38.318789,-85.803789,812-948-4490,https://www.pnc.com
PNC Bank (New Albany),2014 State Street,, New Albany,IN,47150,38.302703,-85.8373087,812-949-6675,https://www.pnc.com
PNC Bank (Woodlawn),4640 Southern Parkway,, Louisville,KY,40214,38.1820702,-85.7682009,502-581-4400,https://www.pnc.com
PNC Bank (Jeffersonville),1712 Charlestown New Albany Road,, Jeffersonville,IN,47130,38.3247266,-85.7428603,812-948-4447,https://www.pnc.com
PNC Bank (Jeffersonville),2910 E 10th Street,, Jeffersonville,IN,47130,38.320996,-85.7137526,812-284-6850,https://www.pnc.com
PNC Bank (Cane Run),4305 Cane Run Road,, Louisville,KY,40216,38.2003585,-85.8360532,502-212-6130,https://www.pnc.com
PNC Bank (Indian Hills),3810 Brownsboro Road,, Louisville,KY,40207,38.2655553,-85.6666221,502-581-6640,https://www.pnc.com
PNC Bank (Hawthorne),2901 Bardstown Road,, Louisville,KY,40205,38.2167273,-85.6758724,(502) 212-6100,https://www.pnc.com
PNC Bank (Iroquois),5021 S 3rd Street,, Louisville,KY,40214,38.173425,-85.7669109,502-212-6150,https://www.pnc.com
PNC Bank (New Albany),3308 Grant Line Road,, New Albany,IN,47150,38.3270399,-85.818376,812-949-6625,https://www.pnc.com
PNC Bank (Newburg),3340 Newburg Road,, Louisville,KY,40218,38.198661,-85.684174,502-212-6200,https://www.pnc.com
PNC Bank (St.Matthews),3828 Shelbyville Road,, Louisville,KY,40207,38.252628,-85.655626,502-212-6280,https://www.pnc.com
PNC Bank (Dixie),4726 Dixie Highway,, Louisville,KY,40216,38.1740363,-85.8240982,502-581-4416,https://www.pnc.com
Fifth Third Bank (Market),309 W Market Street,, Louisville,KY,40202,38.255494,-85.755443,(502) 589-4165,https://www.53.com
Fifth Third Bank (4th Street),401 S 4th Street,, Louisville,KY,40202,38.25274,-85.756874,(502) 562-5215,https://www.53.com
Fifth Third Bank (Broadway),1501 W Broadway,, Louisville,KY,40203,38.248735,-85.776894,(502) 540-1450,https://www.53.com
Fifth Third Bank (Preston),2425 S Shelby Street,, Louisville,KY,40217,38.213423,-85.7413,(502) 635-2628,https://www.53.com
Fifth Third Bank (South Louisville),3014 S 4th Street,, Louisville,KY,40208,38.205795,-85.765908,(502) 634-9297,https://www.53.com
Fifth Third Bank (Brownsboro),2200 Brownsboro Road,, Louisville,KY,40206,38.258028,-85.704219,(502) 895-1981,https://www.53.com
Fifth Third Bank (Bardstown),2000 Bardstown Road,, Louisville,KY,40291,38.2253432,-85.6959369,(502) 456-5669,https://www.53.com
Fifth Third Bank (Shively),3901 Dixie Highway,, Louisville,KY,40216,38.1951452,-85.8058735,(502) 447-1130,https://www.53.com
Fifth Third Bank (Jeffersonville),2932 E 10th Street,, Jeffersonville,IN,47130,38.3213641,-85.713559,(812) 218-8575,https://www.53.com
Fifth Third Bank (Poplar Level),4201 Poplar Level Road,, Louisville,KY,40213,38.199214,-85.7074389,(502) 454-9180,https://www.53.com
Fifth Third Bank (New Albany),3401 Grant Line Road,, New Albany,IN,47150,38.328512,-85.819316,(812) 948-8679,https://www.53.com
Fifth Third Bank (St.Matthews),4090 Shelbyville Road,, Louisville,KY,40207,38.2519009,-85.647711,(502) 897-7177,https://www.53.com
Fifth Third Bank (Buechel),3603 Buechel Bypass,, Louisville,KY,40218,38.199173,-85.660973,(502) 456-5884,https://www.53.com
Fifth Third Bank (Woodlawn),291 N Hubbards Lane,, Louisville,KY,40207,38.258804,-85.637365,(502) 894-0111,https://www.53.com
Fifth Third Bank (St.Matthews),960 Breckenridge Lane,, Louisville,KY,40207,38.2349228,-85.6416907,(502) 899-2160,https://www.53.com
Fifth Third Bank (Dixie),5200 Dixie Highway,, Louisville,KY,40216,38.1646069,-85.831132,(502) 447-3537,https://www.53.com
Fifth Third Bank (New Cut),5393 New Cut Road,, Louisville,KY,40214,38.150967,-85.776011,(502) 366-9709,https://www.53.com
Fifth Third Bank (Brownsboro),2207 Holiday Manor Center,, Louisville,KY,40222,38.2841809,-85.6312279,(502) 425-8202,https://www.53.com
Fifth Third Bank (Hikes Lane),3344 Hikes Lane,, Louisville,KY,40220,38.218145,-85.6279044,(502) 456-2627,https://www.53.com
Fifth Third Bank (Lyndon),9900 Ormsby Station Road,, Louisville,KY,40223,38.2645908,-85.567901,(502) 429-5251,https://www.53.com
Fifth Third Bank (Jeffersontown),9080 Taylorsville Road,, Louisville,KY,40299,38.214319,-85.5895546,(502) 491-4611,https://www.53.com
Fifth Third Bank (Middletown),10400 Shelbyville Road,, Louisville,KY,40223,38.2451894,-85.5622421,(502) 245-2177,https://www.53.com
Fifth Third Bank (Old Brownsboro),4801 Norton Healthcare Boulevard,, Louisville,KY,40241,38.311683,-85.570151,(502) 326-2630,https://www.53.com
Fifth Third Bank (Hurstbourne),3801 S Hurstbourne Parkway,, Louisville,KY,40299,38.192575,-85.604338,(502) 493-4713,https://www.53.com
Fifth Third Bank (Ruckriegel),3821 Ruckriegel Parkway,, Louisville,KY,40299,38.188029,-85.56584,(502) 297-6190,https://www.53.com
Fifth Third Bank (New Cut),5533 New Cut Road,, Louisville,KY,40214,38.144364,-85.773728,(502) 368-3357,https://www.53.com
Fifth Third Bank (Okolona),8003 Preston Highway,, Louisville,KY,40219,38.136589,-85.684988,(502) 964-3393,https://www.53.com
Fifth Third Bank (Dixie),9711 Dixie Highway,, Louisville,KY,40210,38.1143964,-85.8610534,(502) 933-5418,https://www.53.com
Fifth Third Bank (Valley Station),10645 Dixie Highway,, Louisville,KY,40272,38.098762,-85.870105,(502) 935-0900,https://www.53.com
Fifth Third Bank (Hillview),11700 Antonia Way,, Louisville,KY,40229,38.094003,-85.670328,(502) 968-1135,https://www.53.com
Fifth Third Bank (Outer Loop),7519 Outer Loop,, Louisville,KY,40228,38.137498,-85.6201183,(502) 231-2628,https://www.53.com
American Founders Bank (Lyndon),1200 Forest Bridge Road,, Louisville,KY,40223,38.262307,-85.574527,502-638-4750,https://www.afbusa.com/
American Founders Bank (St.Matthews),4220 Shelbyville Road,, Louisville,KY,40207,38.2514988,-85.6383821,502-895-7415,https://www.afbusa.com/
Commonwealth Bank (Aegon),400 W Market Street,, Louisville,KY,40202,38.255147,-85.7571056,(502) 259-2020,http://www.cbandt.com/
Commonwealth Bank (Anchorage),1402 Evergreen Road,, Louisville,KY,40223,38.2657179,-85.5394158,(502) 259-2040,http://www.cbandt.com/
Commonwealth Bank (Highlands),2401 Bardstown Road,, Louisville,KY,40291,38.224009,-85.688041,(502) 259-2160,http://www.cbandt.com/
Commonwealth Bank (Blankenbaker),801 Blankenbaker Parkway,, Louisville,KY,40243,38.2307434,-85.5424137,502.259.2180,http://www.cbandt.com/
Commonwealth Bank (Holiday Manor),4944 U.S. 42,, Louisville,KY,40222,38.28348,-85.632371,(502) 259-2080,http://www.cbandt.com/
Commonwealth Bank (Humana),500 E Main Street,, Louisville,KY,40202,38.2552096,-85.7438623,(502) 259-2060,http://www.cbandt.com/
Commonwealth Bank (Middletown),12906 Shelbyville Road,, Louisville,KY,40243,38.242393,-85.515287,(502) 259-2100,http://www.cbandt.com/
Commonwealth Bank (Preston),11900 Standiford Plaza Drive,, Louisville,KY,40229,38.088768,-85.667069,(502) 969-4450,http://www.cbandt.com/
Commonwealth Bank (St.Matthews),286 N Hubbards Lane,, Louisville,KY,40207,38.25873,-85.640832,(502) 259-2120,http://www.cbandt.com/
Eclipse Bank,3827 Shelbyville Road,, Louisville,KY,40207,38.253193,-85.656352,(502) 671-4800,http://eclipsebank.com/
First Federal Savings Bank (Blankenbaker),301 Blankenbaker Parkway,, Louisville,KY,40243,38.241007,-85.545245,502-244-1700,http://www.ffsbky.com/
First Federal Savings Bank (Hillview),11810 Interchange Drive,, Louisville,KY,40229,38.095514,-85.670817,(502) 966-9886,http://www.ffsbky.com/
First Federal Savings Bank (Jeffersontown),12629 Taylorsville Road,, Louisville,KY,40299,38.1880949,-85.517229,(502) 267-2515,http://www.ffsbky.com/
First Federal Savings Bank (Hurstbourne),3650 S Hurstbourne Parkway,, Louisville,KY,40299,38.195047,-85.604632,502-493-4004,http://www.ffsbky.com/
PBI Bank (Eastpoint),2500 Eastpoint Parkway,, Louisville,KY,40223,38.2843019,-85.506744,502-499-4800,https://www.pbibank.com
PBI Bank (Hillview),6980 Preston Highway,, Louisville,KY,40219,38.1506437,-85.6935145,502-957-2196,https://www.pbibank.com
Old National Bank (St.Matthews),4201 Shelbyville Road,, Louisville,KY,40207,38.252069,-85.639489,(502) 259-7360,https://www.oldnational.com
Old National Bank (Hurstbourne),400 N Hurstbourne Parkway,, Louisville,KY,40222,38.251595,-85.579924,(502) 329-2100,https://www.oldnational.com
Old National Bank (Brownsboro),9708 Brownsboro Road,, Louisville,KY,40241,38.311461,-85.568012,(502) 423-5000,https://www.oldnational.com
Old National Bank (Main Street),333 E Main Street,, Louisville,KY,40202,38.2554888,-85.7460877,(502) 540-7300,https://www.oldnational.com
U.S. Bank (Aegon),400 W Market Street,, Louisville,KY,40202,38.255147,-85.7571056,502-562-6660,https://www.usbank.com
U.S. Bank (35th Street),520 N 35th Street,, Louisville,KY,40212,38.270685,-85.805654,502-772-2301,https://www.usbank.com
U.S. Bank (Germantown),1265 Goss Avenue,, Louisville,KY,40217,38.2245825,-85.7308772,502-634-8901,https://www.usbank.com
U.S. Bank (Churchill Downs),700 Central Avenue,, Louisville,KY,40208,38.202306,-85.770092,502-637-2245,https://www.usbank.com
U.S. Bank (New Albany),2115 E Spring Street,, New Albany,IN,47150,38.297161,-85.7993989,812-941-8368,https://www.usbank.com
U.S. Bank (Audobon),3000 Preston Highway,, Louisville,KY,40217,38.2068223,-85.7375445,502-637-8747,https://www.usbank.com
U.S. Bank (Clarksville),305 E Lewis and Clark Parkway,, Clarksville,IN,47129,38.3104922,-85.7708827,(800) 872-2657,https://www.usbank.com
U.S. Bank (Highlands),2350 Bardstown Road,, Louisville,KY,40205,38.2234539,-85.6893429,(502) 454-0990,https://www.usbank.com
U.S. Bank (Shively),4021 Dixie Highway,, Louisville,KY,40216,38.190632,-85.80823,502-448-5724,https://www.usbank.com
U.S. Bank (Jeffersonville Meijer),2750 Allison Lane,, Jeffersonville,IN,47130,38.325228,-85.711266,(812) 284-0712,https://www.usbank.com
U.S. Bank (St.Matthews),3808 Lexington Road,, Louisville,KY,40207,38.252752,-85.656992,502-895-0595,https://www.usbank.com
U.S. Bank (New Albany Meijer),4222 Charlestown Road,, New Albany,IN,47150,38.349091,-85.793705,812-948-0939,https://www.usbank.com
U.S. Bank (Bashford Manor Kroger),3616 Buechel Bypass,, Louisville,KY,40218,38.198283,-85.663387,502-473-4820,https://www.usbank.com
U.S. Bank (Dixie Kroger),5244 Dixie Highway,, Louisville,KY,40216,38.161663,-85.833665,502-448-5360,https://www.usbank.com
U.S. Bank (Breckenridge),3095 Breckenridge Lane,, Louisville,KY,40220,38.2147794,-85.6273643,502-451-1923,https://www.usbank.com
U.S. Bank (Brownsboro),4951 Brownsboro Road,, Louisville,KY,40222,38.283581,-85.629451,(502) 426-2300,https://www.usbank.com
U.S. Bank (Outer Loop Kroger),4501 Outer Loop,, Louisville,KY,40219,38.1396875,-85.6794838,502-962-2465,https://www.usbank.com
U.S. Bank (Hurstbourne Meijer),4500 Hurstbourne Crossing Drive,, Louisville,KY,40299,38.1864235,-85.6045466,502-493-5938,https://www.usbank.com
U.S. Bank (Preston Meijer),9500 Preston Highway,, Louisville,KY,40229,38.113007,-85.679713,(502) 964-1873,https://www.usbank.com
U.S. Bank (Hurstbourne),333 Whittington Parkway,, Louisville,KY,40222,38.242593,-85.57764,502-562-6314,https://www.usbank.com
U.S. Bank (Valley Station Meijer),9905 Dixie Highway,, Louisville,KY,40272,38.112986,-85.8627622,502-937-8965,https://www.usbank.com
U.S. Bank (Springhurst),3501 Springhurst Commons Drive,, Louisville,KY,40241,38.296908,-85.560664,502-326-3704,https://www.usbank.com
U.S. Bank (Westport Meijer),4100 Towne Center Drive,, Louisville,KY,40241,38.298646,-85.554111,(502) 425-4921,https://www.usbank.com
U.S. Bank (Middletown),12212 Shelbyville Road,, Louisville,KY,40243,38.2476537,-85.5290591,502-244-4446,https://www.usbank.com
U.S. Bank (Taylorsville Kroger),12611 Taylorsville Road,, Louisville,KY,40299,38.188819,-85.518751,502-240-6226,https://www.usbank.com
Autotruck Financial Credit Union (Main Office),3611 Newburg Road,, Louisville,KY,40218,38.18779,-85.667984,(502) 459-8981,http://www.autotruckfcu.org
Autotruck Financial Credit Union (J. Houston Reinle Office),13210 O'Bannon Station Way,, Louisville,KY,40223,38.2817549,-85.514505,(502) 244-2272,http://www.autotruckfcu.org
L&N Federal Credit Union (Southern),4700 Southern Parkway,, Louisville,KY,40214,38.181605,-85.769663,(502) 368-5858,http://www.lnfcu.com
L&N Federal Credit Union (Breckenridge),3099 Breckenridge Lane,, Louisville,KY,40220,38.2147091,-85.6273825,(502) 368-5858,http://www.lnfcu.com
L&N Federal Credit Union (Dixie),7412 Dixie Highway,, Louisville,KY,40258,38.1431941,-85.8398534,(502) 368-5858,http://www.lnfcu.com
L&N Federal Credit Union (Middletown Walmart),12981 Shelbyville Road,, Louisivlle,KY,40243,38.246398,-85.512567,(502) 368-5858,http://www.lnfcu.com
L&N Federal Credit Union (Downtown),200 W Chestnut Street,, Louisville,KY,40202,38.248308,-85.754885,(502) 368-5858,http://www.lnfcu.com
L&N Federal Credit Union (Smyrna),9201 Smyrna Parkway,, Lousiville,KY,40229,38.114587,-85.643728,(502) 368-5858,http://www.lnfcu.com
L&N Federal Credit Union (Brownsboro),9731 Von Allmen Court,, Louisville,KY,40241,38.311892,-85.572029,(502) 368-5858,http://www.lnfcu.com
L&N Federal Credit Union (Jeffersonville),1450 Veterans Parkway,, Jeffersonville,IN,47130,38.3283546,-85.7363379,(502) 368-5858,http://www.lnfcu.com
Park Community Federal Credit Union (Fern Valley),6101 Fern Valley Road,, Louisville,KY,40228,38.157714,-85.647704,(502) 968-3681,https://www.parkcommunity.com/
Park Community Federal Credit Union (Highlands),2443 Bardstown Road,, Louisville,KY,40205,38.2237398,-85.6869573,(502) 968-3681,https://www.parkcommunity.com/
Park Community Federal Credit Union (West Market),515 W Market Street,, Louisville,KY,40202,38.255896,-85.759106,(502) 968-3681,https://www.parkcommunity.com/
Park Community Federal Credit Union (Goldsmith),2221 Goldsmith Lane,, Louisville,KY,40218,38.209985,-85.667194,(502) 968-3681,https://www.parkcommunity.com/
Park Community Federal Credit Union (Blankenbaker),2501 Blankenbaker Parkway,, Louisville,KY,40299,38.2098997,-85.5379647,(502) 968-3681,https://www.parkcommunity.com/
Park Community Federal Credit Union (Dixie),7521 Dixie Highway,, Louisville,KY,40258,38.141559,-85.8395479,(502) 968-3681,https://www.parkcommunity.com/
Park Community Federal Credit Union (Hillview),134 Dr Arla Way,, Louisville,KY,40229,38.0701839,-85.6721731,(502) 968-3681,https://www.parkcommunity.com/